[Satellite]
VERSION=1.1
NAME=YUNHAI 1-02
NICKNAME=YUNHAI 1-02
TLE1=1 44547U 19063A   19279.53266424  .00000122  00000-0  61198-4 0  9997
TLE2=2 44547  98.5924 302.5187 0001110 240.1073 120.0005 14.32604359  1645
STATUS=0
